{
    "links": {
        "self": "http://www.neowsapp.com/rest/v1/neo/3389361?api_key=iIulBulltgU6a56xZRHN4H3l9WmuAYTsLGpBGhQ2"
    },
    "id": "3389361",
    "neo_reference_id": "3389361",
    "name": "(2007 US3)",
    "designation": "2007 US3",
    "nasa_jpl_url": "http://ssd.jpl.nasa.gov/sbdb.cgi?sstr=3389361",
    "absolute_magnitude_h": 22.3,
    "estimated_diameter": {
        "kilometers": {
            "estimated_diameter_min": 0.0921626549,
            "estimated_diameter_max": 0.2060819612
        },
        "meters": {
            "estimated_diameter_min": 92.1626548503,
            "estimated_diameter_max": 206.0819612321
        },
        "miles": {
            "estimated_diameter_min": 0.057267201,
            "estimated_diameter_max": 0.1280533543
        },
        "feet": {
            "estimated_diameter_min": 302.370924539,
            "estimated_diameter_max": 676.1219416887
        }
    },
    "is_potentially_hazardous_asteroid": false,
    "close_approach_data": [
        {
            "close_approach_date": "2007-05-13",
            "close_approach_date_full": "2007-May-13 08:13",
            "epoch_date_close_approach": 1179043980000,
            "relative_velocity": {
                "kilometers_per_second": "12.8113367923",
                "kilometers_per_hour": "46120.8124522382",
                "miles_per_hour": "28657.6792706699"
            },
            "miss_distance": {
                "astronomical": "0.3620121126",
                "lunar": "140.8227118014",
                "kilometers": "54156240.959160162",
                "miles": "33651127.7084957556"
            },
            "orbiting_body": "Earth"
        },
        {
            "close_approach_date": "2007-10-10",
            "close_approach_date_full": "2007-Oct-10 14:34",
            "epoch_date_close_approach": 1192026840000,
            "relative_velocity": {
                "kilometers_per_second": "14.467545488",
                "kilometers_per_hour": "52083.1637568335",
                "miles_per_hour": "32362.452502128"
            },
            "miss_distance": {
                "astronomical": "0.1592736698",
                "lunar": "61.9574575522",
                "kilometers": "23827001.749163326",
                "miles": "14805412.3508368588"
            },
            "orbiting_body": "Earth"
        }
    ],
    "orbital_data": {
        "orbit_id": "12",
        "orbit_determination_date": "2017-04-06 09:05:34",
        "first_observation_date": "2007-10-19",
        "last_observation_date": "2007-11-05",
        "data_arc_in_days": 17,
        "observations_used": 40,
        "orbit_uncertainty": "8",
        "minimum_orbit_intersection": ".149111",
        "jupiter_tisserand_invariant": "4.354",
        "epoch_osculation": "2454398.5",
        "eccentricity": ".3635673155215643",
        "semi_major_axis": "1.512997043702908",
        "inclination": "24.34447776342985",
        "ascending_node_longitude": "28.84699839737045",
        "orbital_period": "679.7599073186817",
        "perihelion_distance": ".9629207701317791",
        "perihelion_argument": "286.9092775459369",
        "aphelion_distance": "2.063073317274037",
        "perihelion_time": "2454326.195489141288",
        "mean_anomaly": "38.2923788662535",
        "mean_motion": ".5295987540954318",
        "equinox": "J2000",
        "orbit_class": {
            "orbit_class_type": "APO",
            "orbit_class_description": "Near-Earth asteroid orbits which cross the Earth’s orbit similar to that of 1862 Apollo",
            "orbit_class_range": "a (semi-major axis) > 1.0 AU; q (perihelion) < 1.017 AU"
        }
    },
    "is_sentry_object": false
}